[{"OBJECT_NAME":"JILIN-1 05","OBJECT_ID":"2017-074B","EPOCH":"2026-03-09T21:56:30.612480","MEAN_MOTION":15.3245271,"ECCENTRICITY":0.00045948,"INCLINATION":97.4781,"RA_OF_ASC_NODE":173.8936,"ARG_OF_PERICENTER":206.4038,"MEAN_ANOMALY":153.6971,"EPHEMERIS_TYPE":0,"CLASSIFICATION_TYPE":"U","NORAD_CAT_ID":43023,"ELEMENT_SET_NO":999,"REV_AT_EPOCH":45879,"BSTAR":0.00026108793,"MEAN_MOTION_DOT":8.104e-5,"MEAN_MOTION_DDOT":0},{"OBJECT_NAME":"STARLINK-36127","OBJECT_ID":"2025-286L","EPOCH":"2026-03-09T05:08:36.120480","MEAN_MOTION":15.3019741,"ECCENTRICITY":9.617e-5,"INCLINATION":53.1615,"RA_OF_ASC_NODE":0.6854,"ARG_OF_PERICENTER":109.5307,"MEAN_ANOMALY":250.5798,"EPHEMERIS_TYPE":0,"CLASSIFICATION_TYPE":"U","NORAD_CAT_ID":66935,"ELEMENT_SET_NO":999,"REV_AT_EPOCH":1534,"BSTAR":-6.5778469e-5,"MEAN_MOTION_DOT":-2.306e-5,"MEAN_MOTION_DDOT":0}]
